IRIDIUM 112             
1 41925U 17003J   24294.65911419  .00000964  00000+0  33700-3 0  9993
2 41925  86.3986 340.9462 0001849  98.4492 261.6914 14.34220868406624
IRIDIUM 111             
1 41926U 17003K   24295.27434777  .00000656  00000+0  22727-3 0  9995
2 41926  86.3988 340.7463 0002111  96.6983 263.4453 14.34218369406760
IRIDIUM 113             
1 42803U 17039A   24295.32408054  .00000916  00000+0  31990-3 0  9995
2 42803  86.4027 214.4694 0001905  86.9080 273.2333 14.34220075384637
IRIDIUM 123             
1 42804U 17039B   24294.87716526  .00001061  00000+0  37181-3 0  9991
2 42804  86.3959 246.1207 0002404  86.8868 273.2602 14.34221849383336
IRIDIUM 120             
1 42805U 17039C   24295.31773695  .00000918  00000+0  32059-3 0  9991
2 42805  86.4015 214.3330 0002244  77.4910 282.6537 14.34219359384628
IRIDIUM 115             
1 42806U 17039D   24295.24695595  .00001187  00000+0  34696-3 0  9994
2 42806  86.4553 214.4057 0002296  88.9959 271.1505 14.43286164387157
IRIDIUM 118             
1 42807U 17039E   24294.90887307  .00000686  00000+0  23793-3 0  9990
2 42807  86.3959 246.1082 0002233  82.9024 277.2425 14.34223113383345
IRIDIUM 117             
1 42808U 17039F   24294.92790896  .00001093  00000+0  38305-3 0  9997
2 42808  86.3956 246.0638 0002353  87.8009 272.3456 14.34223774383375
